SHIJIAN-16 (SJ-16)      
1 39358U 13057A   25336.87919588  .00001975  00000+0  19739-3 0  9991
2 39358  74.9737   8.3113 0017331 343.0847  16.9760 14.91946513657063
SL-4 R/B                
1 39679U 14021B   25336.59953817  .00018467  00000+0  44014-3 0  9999
2 39679  51.6068  89.8600 0102666 109.7557 251.4532 15.36273215641332
ALOS-2                  
1 39766U 14029A   25336.86855992  .00002756  00000+0  37603-3 0  9999
2 39766  97.9236  71.8555 0001505 108.9474 251.1900 14.79446158622551
YAOGAN-29               
1 41038U 15069A   25336.83292032  .00000680  00000+0  90635-4 0  9995
2 41038  98.0229 359.9724 0000805   9.2104 350.9124 14.82864522541529
ASTRO-H (HITOMI)        
1 41337U 16012A   25336.50563429  .00004624  00000+0  27753-3 0  9993
2 41337  31.0001 263.3446 0009483  74.5302 285.6383 15.09248160537532
HXMT (HUIYAN)           
1 42758U 17034A   25336.90899691  .00006200  00000+0  32360-3 0  9995
2 42758  43.0129 194.1780 0032951 340.6388  19.3206 15.16119542467844
CZ-2C R/B               
1 43521U 18054D   25336.45206275  .00098083  00000+0  72347-3 0  9996
2 43521  35.1345 250.5325 0017890  35.4636 324.7283 15.71502133413434
SAOCOM 1A               
1 43641U 18076A   25336.81536385  .00000724  00000+0  97456-4 0  9995
2 43641  97.8855 161.3820 0001573  86.8307 273.3086 14.82159758387019
H-2A R/B                
1 43682U 18084L   25336.79760860  .00022552  00000+0  62015-3 0  9998
2 43682  98.8779 168.8196 0028163   0.5709 359.5558 15.36825881390877
SAOCOM 1B               
1 46265U 20059A   25336.77907605  .00000716  00000+0  96477-4 0  9999
2 46265  97.8842 160.4474 0001274  87.6223 272.5136 14.82140994284395
CSS (TIANHE)            
1 48274U 21035A   25336.72034838  .00028026  00000+0  35828-3 0  9996
2 48274  41.4674  77.5061 0010224 315.4277  44.5738 15.58546644262466
COSMOS 2550             
1 48865U 21056A   25336.74928932 -.00000131  00000+0  18326-5 0  9998
2 48865  67.1456 334.1530 0008285 270.0013  90.0192 15.33838346248590
