CCSDS_OMM_VERS = 2.0
CREATION_DATE  = 
ORIGINATOR     = 

OBJECT_NAME    = SHIJIAN-16 (SJ-16)
OBJECT_ID      = 2013-057A
CENTER_NAME    = EARTH
REF_FRAME      = TEME
TIME_SYSTEM    = UTC
MEAN_ELEMENT_THEORY = SGP/SGP4

EPOCH          = 2025-12-02T21:06:02.524032
MEAN_MOTION    = 14.91946513
ECCENTRICITY   = .0017331
INCLINATION    = 74.9737
RA_OF_ASC_NODE = 8.3113
ARG_OF_PERICENTER = 343.0847
MEAN_ANOMALY   = 16.9760

EPHEMERIS_TYPE = 0
CLASSIFICATION_TYPE = U
NORAD_CAT_ID   = 39358
ELEMENT_SET_NO = 999
REV_AT_EPOCH   = 65706
BSTAR          = .19739E-3
MEAN_MOTION_DOT = .1975E-4
MEAN_MOTION_DDOT = 0

CCSDS_OMM_VERS = 2.0
CREATION_DATE  = 
ORIGINATOR     = 

OBJECT_NAME    = SL-4 R/B
OBJECT_ID      = 2014-021B
CENTER_NAME    = EARTH
REF_FRAME      = TEME
TIME_SYSTEM    = UTC
MEAN_ELEMENT_THEORY = SGP/SGP4

EPOCH          = 2025-12-02T14:23:20.097888
MEAN_MOTION    = 15.36273215
ECCENTRICITY   = .0102666
INCLINATION    = 51.6068
RA_OF_ASC_NODE = 89.8600
ARG_OF_PERICENTER = 109.7557
MEAN_ANOMALY   = 251.4532

EPHEMERIS_TYPE = 0
CLASSIFICATION_TYPE = U
NORAD_CAT_ID   = 39679
ELEMENT_SET_NO = 999
REV_AT_EPOCH   = 64133
BSTAR          = .44014E-3
MEAN_MOTION_DOT = .18467E-3
MEAN_MOTION_DDOT = 0

CCSDS_OMM_VERS = 2.0
CREATION_DATE  = 
ORIGINATOR     = 

OBJECT_NAME    = ALOS-2
OBJECT_ID      = 2014-029A
CENTER_NAME    = EARTH
REF_FRAME      = TEME
TIME_SYSTEM    = UTC
MEAN_ELEMENT_THEORY = SGP/SGP4

EPOCH          = 2025-12-02T20:50:43.577088
MEAN_MOTION    = 14.79446158
ECCENTRICITY   = .0001505
INCLINATION    = 97.9236
RA_OF_ASC_NODE = 71.8555
ARG_OF_PERICENTER = 108.9474
MEAN_ANOMALY   = 251.1900

EPHEMERIS_TYPE = 0
CLASSIFICATION_TYPE = U
NORAD_CAT_ID   = 39766
ELEMENT_SET_NO = 999
REV_AT_EPOCH   = 62255
BSTAR          = .37603E-3
MEAN_MOTION_DOT = .2756E-4
MEAN_MOTION_DDOT = 0

CCSDS_OMM_VERS = 2.0
CREATION_DATE  = 
ORIGINATOR     = 

OBJECT_NAME    = YAOGAN-29
OBJECT_ID      = 2015-069A
CENTER_NAME    = EARTH
REF_FRAME      = TEME
TIME_SYSTEM    = UTC
MEAN_ELEMENT_THEORY = SGP/SGP4

EPOCH          = 2025-12-02T19:59:24.315648
MEAN_MOTION    = 14.82864522
ECCENTRICITY   = .0000805
INCLINATION    = 98.0229
RA_OF_ASC_NODE = 359.9724
ARG_OF_PERICENTER = 9.2104
MEAN_ANOMALY   = 350.9124

EPHEMERIS_TYPE = 0
CLASSIFICATION_TYPE = U
NORAD_CAT_ID   = 41038
ELEMENT_SET_NO = 999
REV_AT_EPOCH   = 54152
BSTAR          = .90635E-4
MEAN_MOTION_DOT = .68E-5
MEAN_MOTION_DDOT = 0

CCSDS_OMM_VERS = 2.0
CREATION_DATE  = 
ORIGINATOR     = 

OBJECT_NAME    = ASTRO-H (HITOMI)
OBJECT_ID      = 2016-012A
CENTER_NAME    = EARTH
REF_FRAME      = TEME
TIME_SYSTEM    = UTC
MEAN_ELEMENT_THEORY = SGP/SGP4

EPOCH          = 2025-12-02T12:08:06.802656
MEAN_MOTION    = 15.09248160
ECCENTRICITY   = .0009483
INCLINATION    = 31.0001
RA_OF_ASC_NODE = 263.3446
ARG_OF_PERICENTER = 74.5302
MEAN_ANOMALY   = 285.6383

EPHEMERIS_TYPE = 0
CLASSIFICATION_TYPE = U
NORAD_CAT_ID   = 41337
ELEMENT_SET_NO = 999
REV_AT_EPOCH   = 53753
BSTAR          = .27753E-3
MEAN_MOTION_DOT = .4624E-4
MEAN_MOTION_DDOT = 0

CCSDS_OMM_VERS = 2.0
CREATION_DATE  = 
ORIGINATOR     = 

OBJECT_NAME    = HXMT (HUIYAN)
OBJECT_ID      = 2017-034A
CENTER_NAME    = EARTH
REF_FRAME      = TEME
TIME_SYSTEM    = UTC
MEAN_ELEMENT_THEORY = SGP/SGP4

EPOCH          = 2025-12-02T21:48:57.333024
MEAN_MOTION    = 15.16119542
ECCENTRICITY   = .0032951
INCLINATION    = 43.0129
RA_OF_ASC_NODE = 194.1780
ARG_OF_PERICENTER = 340.6388
MEAN_ANOMALY   = 19.3206

EPHEMERIS_TYPE = 0
CLASSIFICATION_TYPE = U
NORAD_CAT_ID   = 42758
ELEMENT_SET_NO = 999
REV_AT_EPOCH   = 46784
BSTAR          = .3236E-3
MEAN_MOTION_DOT = .62E-4
MEAN_MOTION_DDOT = 0

CCSDS_OMM_VERS = 2.0
CREATION_DATE  = 
ORIGINATOR     = 

OBJECT_NAME    = CZ-2C R/B
OBJECT_ID      = 2018-054D
CENTER_NAME    = EARTH
REF_FRAME      = TEME
TIME_SYSTEM    = UTC
MEAN_ELEMENT_THEORY = SGP/SGP4

EPOCH          = 2025-12-02T10:50:58.221600
MEAN_MOTION    = 15.71502133
ECCENTRICITY   = .001789
INCLINATION    = 35.1345
RA_OF_ASC_NODE = 250.5325
ARG_OF_PERICENTER = 35.4636
MEAN_ANOMALY   = 324.7283

EPHEMERIS_TYPE = 0
CLASSIFICATION_TYPE = U
NORAD_CAT_ID   = 43521
ELEMENT_SET_NO = 999
REV_AT_EPOCH   = 41343
BSTAR          = .72347E-3
MEAN_MOTION_DOT = .98083E-3
MEAN_MOTION_DDOT = 0

CCSDS_OMM_VERS = 2.0
CREATION_DATE  = 
ORIGINATOR     = 

OBJECT_NAME    = SAOCOM 1A
OBJECT_ID      = 2018-076A
CENTER_NAME    = EARTH
REF_FRAME      = TEME
TIME_SYSTEM    = UTC
MEAN_ELEMENT_THEORY = SGP/SGP4

EPOCH          = 2025-12-02T19:34:07.436640
MEAN_MOTION    = 14.82159758
ECCENTRICITY   = .0001573
INCLINATION    = 97.8855
RA_OF_ASC_NODE = 161.3820
ARG_OF_PERICENTER = 86.8307
MEAN_ANOMALY   = 273.3086

EPHEMERIS_TYPE = 0
CLASSIFICATION_TYPE = U
NORAD_CAT_ID   = 43641
ELEMENT_SET_NO = 999
REV_AT_EPOCH   = 38701
BSTAR          = .97456E-4
MEAN_MOTION_DOT = .724E-5
MEAN_MOTION_DDOT = 0

CCSDS_OMM_VERS = 2.0
CREATION_DATE  = 
ORIGINATOR     = 

OBJECT_NAME    = H-2A R/B
OBJECT_ID      = 2018-084L
CENTER_NAME    = EARTH
REF_FRAME      = TEME
TIME_SYSTEM    = UTC
MEAN_ELEMENT_THEORY = SGP/SGP4

EPOCH          = 2025-12-02T19:08:33.383040
MEAN_MOTION    = 15.36825881
ECCENTRICITY   = .0028163
INCLINATION    = 98.8779
RA_OF_ASC_NODE = 168.8196
ARG_OF_PERICENTER = 0.5709
MEAN_ANOMALY   = 359.5558

EPHEMERIS_TYPE = 0
CLASSIFICATION_TYPE = U
NORAD_CAT_ID   = 43682
ELEMENT_SET_NO = 999
REV_AT_EPOCH   = 39087
BSTAR          = .62015E-3
MEAN_MOTION_DOT = .22552E-3
MEAN_MOTION_DDOT = 0

CCSDS_OMM_VERS = 2.0
CREATION_DATE  = 
ORIGINATOR     = 

OBJECT_NAME    = SAOCOM 1B
OBJECT_ID      = 2020-059A
CENTER_NAME    = EARTH
REF_FRAME      = TEME
TIME_SYSTEM    = UTC
MEAN_ELEMENT_THEORY = SGP/SGP4

EPOCH          = 2025-12-02T18:41:52.170720
MEAN_MOTION    = 14.82140994
ECCENTRICITY   = .0001274
INCLINATION    = 97.8842
RA_OF_ASC_NODE = 160.4474
ARG_OF_PERICENTER = 87.6223
MEAN_ANOMALY   = 272.5136

EPHEMERIS_TYPE = 0
CLASSIFICATION_TYPE = U
NORAD_CAT_ID   = 46265
ELEMENT_SET_NO = 999
REV_AT_EPOCH   = 28439
BSTAR          = .96477E-4
MEAN_MOTION_DOT = .716E-5
MEAN_MOTION_DDOT = 0

CCSDS_OMM_VERS = 2.0
CREATION_DATE  = 
ORIGINATOR     = 

OBJECT_NAME    = CSS (TIANHE)
OBJECT_ID      = 2021-035A
CENTER_NAME    = EARTH
REF_FRAME      = TEME
TIME_SYSTEM    = UTC
MEAN_ELEMENT_THEORY = SGP/SGP4

EPOCH          = 2025-12-02T17:17:18.100032
MEAN_MOTION    = 15.58546644
ECCENTRICITY   = .0010224
INCLINATION    = 41.4674
RA_OF_ASC_NODE = 77.5061
ARG_OF_PERICENTER = 315.4277
MEAN_ANOMALY   = 44.5738

EPHEMERIS_TYPE = 0
CLASSIFICATION_TYPE = U
NORAD_CAT_ID   = 48274
ELEMENT_SET_NO = 999
REV_AT_EPOCH   = 26246
BSTAR          = .35828E-3
MEAN_MOTION_DOT = .28026E-3
MEAN_MOTION_DDOT = 0

CCSDS_OMM_VERS = 2.0
CREATION_DATE  = 
ORIGINATOR     = 

OBJECT_NAME    = COSMOS 2550
OBJECT_ID      = 2021-056A
CENTER_NAME    = EARTH
REF_FRAME      = TEME
TIME_SYSTEM    = UTC
MEAN_ELEMENT_THEORY = SGP/SGP4

EPOCH          = 2025-12-02T17:58:58.597248
MEAN_MOTION    = 15.33838346
ECCENTRICITY   = .0008285
INCLINATION    = 67.1456
RA_OF_ASC_NODE = 334.1530
ARG_OF_PERICENTER = 270.0013
MEAN_ANOMALY   = 90.0192

EPHEMERIS_TYPE = 0
CLASSIFICATION_TYPE = U
NORAD_CAT_ID   = 48865
ELEMENT_SET_NO = 999
REV_AT_EPOCH   = 24859
BSTAR          = .18326E-5
MEAN_MOTION_DOT = -.131E-5
MEAN_MOTION_DDOT = 0

